ONEWEB-0707             
1 61612U 24188U   25355.15314559  .00000001  00000+0 -33882-4 0  9991
2 61612  87.8816  71.7399 0001094 111.0576 249.0669 13.10370455 60008
ONEWEB-0708             
1 61613U 24188V   25355.47682750 -.00000577  00000+0 -16887-2 0  9991
2 61613  87.8810  71.7104 0001789 124.1525 235.9773 13.10372828 60025
